start=new Date('2022-05-20T00:00:00.000Z').valueOf();
sats=[{"ECCENTRICITY":"0.00018030","OBJECT_ID":"2022-017AM","SEMIMAJOR_AXIS":"6917.877","TLE_LINE2":"2 51803  53.2152 108.0514 0001803  52.2853  81.0340 15.08841058  1303","INCLINATION":"53.2152","PERIOD":"95.437","GP_ID":"203990448","EPHEMERIS_TYPE":"0","CLASSIFICATION_TYPE":"U","TLE_LINE1":"1 51803U 22017AM  22139.91667824  .00024219  00000-0  15345-2 0  9997","DECAY_DATE":null,"RCS_SIZE":"LARGE","FILE":"3453812","MEAN_ELEMENT_THEORY":"SGP4","SITE":"AFWTR","MEAN_MOTION":"15.08841058","ELEMENT_SET_NO":"999","REV_AT_EPOCH":"130","NORAD_CAT_ID":"51803","MEAN_MOTION_DDOT":"0.0000000000000","LAUNCH_DATE":"2022-02-25","PERIAPSIS":"538.495","APOAPSIS":"540.989","MEAN_MOTION_DOT":"0.00024219","RA_OF_ASC_NODE":"108.0514","MEAN_ANOMALY":"81.0340","REF_FRAME":"TEME","EPOCH":"2022-05-19T22:00:00.999936","BSTAR":"0.00153450000000","ARG_OF_PERICENTER":"52.2853","OBJECT_NAME":"STARLINK-3544","TIME_SYSTEM":"UTC","COUNTRY_CODE":"US","OBJECT_TYPE":"PAYLOAD","CENTER_NAME":"EARTH"},{"COUNTRY_CODE":"US","CENTER_NAME":"EARTH","OBJECT_TYPE":"PAYLOAD","EPOCH":"2022-05-19T22:00:00.999936","OBJECT_NAME":"STARLINK-3601","ARG_OF_PERICENTER":"68.9496","BSTAR":"-0.01328200000000","TIME_SYSTEM":"UTC","REF_FRAME":"TEME","RA_OF_ASC_NODE":"92.7577","MEAN_ANOMALY":"357.0218","NORAD_CAT_ID":"51804","MEAN_MOTION_DDOT":"0.0000000000000","PERIAPSIS":"413.580","LAUNCH_DATE":"2022-02-25","MEAN_MOTION_DOT":"-0.00721466","APOAPSIS":"415.141","DECAY_DATE":null,"FILE":"3453812","MEAN_ELEMENT_THEORY":"SGP4","RCS_SIZE":"LARGE","SITE":"AFWTR","MEAN_MOTION":"15.50810313","ELEMENT_SET_NO":"999","REV_AT_EPOCH":"130","CLASSIFICATION_TYPE":"U","TLE_LINE1":"1 51804U 22017AN  22139.91667824 -.00721466  00000-0 -13282-1 0  9995","INCLINATION":"53.2176","PERIOD":"92.855","EPHEMERIS_TYPE":"0","GP_ID":"203990736","ECCENTRICITY":"0.00011490","OBJECT_ID":"2022-017AN","SEMIMAJOR_AXIS":"6792.496","TLE_LINE2":"2 51804  53.2176  92.7577 0001149  68.9496 357.0218 15.50810313  1305"},{"ECCENTRICITY":"0.00011380","OBJECT_ID":"2022-017AP","SEMIMAJOR_AXIS":"6792.461","TLE_LINE2":"2 51805  53.2176  92.5295 0001138  67.9438 347.6525 15.50822421  1303","INCLINATION":"53.2176","PERIOD":"92.854","EPHEMERIS_TYPE":"0","GP_ID":"203990877","CLASSIFICATION_TYPE":"U","TLE_LINE1":"1 51805U 22017AP  22139.91667824 -.00721553  00000-0 -13278-1 0  9998","DECAY_DATE":null,"RCS_SIZE":"LARGE","FILE":"3453812","MEAN_ELEMENT_THEORY":"SGP4","MEAN_MOTION":"15.50822421","SITE":"AFWTR","ELEMENT_SET_NO":"999","REV_AT_EPOCH":"130","MEAN_MOTION_DDOT":"0.0000000000000","NORAD_CAT_ID":"51805","PERIAPSIS":"413.553","LAUNCH_DATE":"2022-02-25","MEAN_MOTION_DOT":"-0.00721553","APOAPSIS":"415.099","REF_FRAME":"TEME","RA_OF_ASC_NODE":"92.5295","MEAN_ANOMALY":"347.6525","EPOCH":"2022-05-19T22:00:00.999936","ARG_OF_PERICENTER":"67.9438","OBJECT_NAME":"STARLINK-3605","BSTAR":"-0.01327800000000","TIME_SYSTEM":"UTC","COUNTRY_CODE":"US","OBJECT_TYPE":"PAYLOAD","CENTER_NAME":"EARTH"},{"LAUNCH_DATE":"2022-02-25","PERIAPSIS":"499.768","MEAN_MOTION_DDOT":"0.0000000000000","NORAD_CAT_ID":"51806","MEAN_MOTION_DOT":"-0.00723326","APOAPSIS":"502.398","REF_FRAME":"TEME","MEAN_ANOMALY":"137.0401","RA_OF_ASC_NODE":"98.3708","OBJECT_NAME":"STARLINK-3581","ARG_OF_PERICENTER":"40.0386","BSTAR":"-0.03397300000000","EPOCH":"2022-05-19T22:00:00.999936","TIME_SYSTEM":"UTC","COUNTRY_CODE":"US","CENTER_NAME":"EARTH","OBJECT_TYPE":"PAYLOAD","SEMIMAJOR_AXIS":"6879.218","OBJECT_ID":"2022-017AQ","ECCENTRICITY":"0.00019110","TLE_LINE2":"2 51806  53.2176  98.3708 0001911  40.0386 137.0401 15.21577760  1305","PERIOD":"94.639","INCLINATION":"53.2176","EPHEMERIS_TYPE":"0","GP_ID":"203990640","TLE_LINE1":"1 51806U 22017AQ  22139.91667824 -.00723326  00000-0 -33973-1 0  9993","CLASSIFICATION_TYPE":"U","MEAN_ELEMENT_THEORY":"SGP4","FILE":"3453812","RCS_SIZE":"LARGE","DECAY_DATE":null,"REV_AT_EPOCH":"130","SITE":"AFWTR","ELEMENT_SET_NO":"999","MEAN_MOTION":"15.21577760"},{"FILE":"3453812","RCS_SIZE":"LARGE","MEAN_ELEMENT_THEORY":"SGP4","DECAY_DATE":null,"REV_AT_EPOCH":"130","SITE":"AFWTR","MEAN_MOTION":"15.21185705","ELEMENT_SET_NO":"999","TLE_LINE1":"1 51807U 22017AR  22139.91667824 -.00722846  00000-0 -34343-1 0  9992","CLASSIFICATION_TYPE":"U","PERIOD":"94.663","INCLINATION":"53.2176","EPHEMERIS_TYPE":"0","GP_ID":"203990782","OBJECT_ID":"2022-017AR","SEMIMAJOR_AXIS":"6880.400","ECCENTRICITY":"0.00020600","TLE_LINE2":"2 51807  53.2176  98.3641 0002060  33.8503 114.7928 15.21185705  1309","COUNTRY_CODE":"US","OBJECT_TYPE":"PAYLOAD","CENTER_NAME":"EARTH","ARG_OF_PERICENTER":"33.8503","OBJECT_NAME":"STARLINK-3606","BSTAR":"-0.03434300000000","EPOCH":"2022-05-19T22:00:00.999936","TIME_SYSTEM":"UTC","REF_FRAME":"TEME","MEAN_ANOMALY":"114.7928","RA_OF_ASC_NODE":"98.3641","PERIAPSIS":"500.848","LAUNCH_DATE":"2022-02-25","NORAD_CAT_ID":"51807","MEAN_MOTION_DDOT":"0.0000000000000","MEAN_MOTION_DOT":"-0.00722846","APOAPSIS":"503.682"},{"COUNTRY_CODE":"US","OBJECT_TYPE":"PAYLOAD","CENTER_NAME":"EARTH","EPOCH":"2022-05-19T22:00:00.999936","ARG_OF_PERICENTER":"37.6899","OBJECT_NAME":"STARLINK-3609","BSTAR":"-0.03357700000000","TIME_SYSTEM":"UTC","REF_FRAME":"TEME","MEAN_ANOMALY":"167.3331","RA_OF_ASC_NODE":"98.3774","MEAN_MOTION_DDOT":"0.0000000000000","NORAD_CAT_ID":"51808","PERIAPSIS":"498.512","LAUNCH_DATE":"2022-02-25","MEAN_MOTION_DOT":"-0.00723329","APOAPSIS":"501.267","DECAY_DATE":null,"MEAN_ELEMENT_THEORY":"SGP4","FILE":"3453812","RCS_SIZE":"LARGE","ELEMENT_SET_NO":"999","SITE":"AFWTR","MEAN_MOTION":"15.21973741","REV_AT_EPOCH":"130","CLASSIFICATION_TYPE":"U","TLE_LINE1":"1 51808U 22017AS  22139.91667824 -.00723329  00000-0 -33577-1 0  9998","PERIOD":"94.614","INCLINATION":"53.2175","EPHEMERIS_TYPE":"0","GP_ID":"203991070","ECCENTRICITY":"0.00020030","OBJECT_ID":"2022-017AS","SEMIMAJOR_AXIS":"6878.025","TLE_LINE2":"2 51808  53.2175  98.3774 0002003  37.6899 167.3331 15.21973741  1300"},{"COUNTRY_CODE":"US","CENTER_NAME":"EARTH","OBJECT_TYPE":"PAYLOAD","BSTAR":"-0.03416000000000","ARG_OF_PERICENTER":"40.0712","OBJECT_NAME":"STARLINK-3607","EPOCH":"2022-05-19T22:00:00.999936","TIME_SYSTEM":"UTC","MEAN_ANOMALY":"122.7726","RA_OF_ASC_NODE":"98.3676","REF_FRAME":"TEME","PERIAPSIS":"500.360","LAUNCH_DATE":"2022-02-25","NORAD_CAT_ID":"51809","MEAN_MOTION_DDOT":"0.0000000000000","APOAPSIS":"502.975","MEAN_MOTION_DOT":"-0.00723165","FILE":"3453812","MEAN_ELEMENT_THEORY":"SGP4","RCS_SIZE":"LARGE","DECAY_DATE":null,"REV_AT_EPOCH":"130","ELEMENT_SET_NO":"999","SITE":"AFWTR","MEAN_MOTION":"15.21383876","TLE_LINE1":"1 51809U 22017AT  22139.91667824 -.00723165  00000-0 -34160-1 0  9996","CLASSIFICATION_TYPE":"U","INCLINATION":"53.2176","PERIOD":"94.651","GP_ID":"203990545","EPHEMERIS_TYPE":"0","OBJECT_ID":"2022-017AT","SEMIMAJOR_AXIS":"6879.802","ECCENTRICITY":"0.00019000","TLE_LINE2":"2 51809  53.2176  98.3676 0001900  40.0712 122.7726 15.21383876  1307"},{"MEAN_MOTION_DOT":"-0.00721739","APOAPSIS":"415.150","PERIAPSIS":"413.615","LAUNCH_DATE":"2022-02-25","MEAN_MOTION_DDOT":"0.0000000000000","NORAD_CAT_ID":"51810","REF_FRAME":"TEME","MEAN_ANOMALY":"348.4768","RA_OF_ASC_NODE":"92.6562","TIME_SYSTEM":"UTC","ARG_OF_PERICENTER":"71.7546","OBJECT_NAME":"STARLINK-3613","BSTAR":"-0.01329100000000","EPOCH":"2022-05-19T22:00:00.999936","CENTER_NAME":"EARTH","OBJECT_TYPE":"PAYLOAD","COUNTRY_CODE":"US","TLE_LINE2":"2 51810  53.2176  92.6562 0001130  71.7546 348.4768 15.50802915  1306","SEMIMAJOR_AXIS":"6792.518","OBJECT_ID":"2022-017AU","ECCENTRICITY":"0.00011300","EPHEMERIS_TYPE":"0","GP_ID":"203990974","INCLINATION":"53.2176","PERIOD":"92.855","TLE_LINE1":"1 51810U 22017AU  22139.91667824 -.00721739  00000-0 -13291-1 0  9995","CLASSIFICATION_TYPE":"U","REV_AT_EPOCH":"130","ELEMENT_SET_NO":"999","SITE":"AFWTR","MEAN_MOTION":"15.50802915","RCS_SIZE":"LARGE","FILE":"3453812","MEAN_ELEMENT_THEORY":"SGP4","DECAY_DATE":null},{"COUNTRY_CODE":"US","CENTER_NAME":"EARTH","OBJECT_TYPE":"PAYLOAD","BSTAR":"-0.03377100000000","OBJECT_NAME":"STARLINK-3569","ARG_OF_PERICENTER":"40.2454","EPOCH":"2022-05-19T22:00:00.999936","TIME_SYSTEM":"UTC","MEAN_ANOMALY":"150.8515","RA_OF_ASC_NODE":"98.3741","REF_FRAME":"TEME","PERIAPSIS":"499.157","LAUNCH_DATE":"2022-02-25","MEAN_MOTION_DDOT":"0.0000000000000","NORAD_CAT_ID":"51811","APOAPSIS":"501.816","MEAN_MOTION_DOT":"-0.00723253","RCS_SIZE":"LARGE","FILE":"3453812","MEAN_ELEMENT_THEORY":"SGP4","DECAY_DATE":null,"REV_AT_EPOCH":"130","SITE":"AFWTR","MEAN_MOTION":"15.21775715","ELEMENT_SET_NO":"999","TLE_LINE1":"1 51811U 22017AV  22139.91667824 -.00723253  00000-0 -33771-1 0  9994","CLASSIFICATION_TYPE":"U","INCLINATION":"53.2175","PERIOD":"94.626","GP_ID":"203990449","EPHEMERIS_TYPE":"0","SEMIMAJOR_AXIS":"6878.621","OBJECT_ID":"2022-017AV","ECCENTRICITY":"0.00019330","TLE_LINE2":"2 51811  53.2175  98.3741 0001933  40.2454 150.8515 15.21775715  1308"},{"MEAN_MOTION_DOT":"-0.00721650","APOAPSIS":"415.138","NORAD_CAT_ID":"51812","MEAN_MOTION_DDOT":"0.0000000000000","LAUNCH_DATE":"2022-02-25","PERIAPSIS":"413.599","REF_FRAME":"TEME","MEAN_ANOMALY":"348.5102","RA_OF_ASC_NODE":"92.7000","TIME_SYSTEM":"UTC","EPOCH":"2022-05-19T22:00:00.999936","OBJECT_NAME":"STARLINK-3610","ARG_OF_PERICENTER":"72.5816","BSTAR":"-0.01328700000000","CENTER_NAME":"EARTH","OBJECT_TYPE":"PAYLOAD","COUNTRY_CODE":"US","TLE_LINE2":"2 51812  53.2176  92.7000 0001133  72.5816 348.5102 15.50807586  1300","ECCENTRICITY":"0.00011330","SEMIMAJOR_AXIS":"6792.504","OBJECT_ID":"2022-017AW","EPHEMERIS_TYPE":"0","GP_ID":"203990737","PERIOD":"92.855","INCLINATION":"53.2176","CLASSIFICATION_TYPE":"U","TLE_LINE1":"1 51812U 22017AW  22139.91667824 -.00721650  00000-0 -13287-1 0  9994","ELEMENT_SET_NO":"999","SITE":"AFWTR","MEAN_MOTION":"15.50807586","REV_AT_EPOCH":"130","DECAY_DATE":null,"FILE":"3453812","MEAN_ELEMENT_THEORY":"SGP4","RCS_SIZE":"LARGE"}];
